{
    "links": {
        "self": "http://www.neowsapp.com/rest/v1/neo/3427458?api_key=iIulBulltgU6a56xZRHN4H3l9WmuAYTsLGpBGhQ2"
    },
    "id": "3427458",
    "neo_reference_id": "3427458",
    "name": "(2008 SR)",
    "designation": "2008 SR",
    "nasa_jpl_url": "http://ssd.jpl.nasa.gov/sbdb.cgi?sstr=3427458",
    "absolute_magnitude_h": 21.8,
    "estimated_diameter": {
        "kilometers": {
            "estimated_diameter_min": 0.1160259082,
            "estimated_diameter_max": 0.2594418179
        },
        "meters": {
            "estimated_diameter_min": 116.0259082094,
            "estimated_diameter_max": 259.4418179074
        },
        "miles": {
            "estimated_diameter_min": 0.0720951346,
            "estimated_diameter_max": 0.1612096218
        },
        "feet": {
            "estimated_diameter_min": 380.6624406898,
            "estimated_diameter_max": 851.1870938635
        }
    },
    "is_potentially_hazardous_asteroid": false,
    "close_approach_data": [
        {
            "close_approach_date": "1991-11-04",
            "close_approach_date_full": "1991-Nov-04 06:35",
            "epoch_date_close_approach": 689236500000,
            "relative_velocity": {
                "kilometers_per_second": "2.9901352292",
                "kilometers_per_hour": "10764.4868250706",
                "miles_per_hour": "6688.6334941668"
            },
            "miss_distance": {
                "astronomical": "0.239239619",
                "lunar": "93.064211791",
                "kilometers": "35789737.42201153",
                "miles": "22238711.611277914"
            },
            "orbiting_body": "Earth"
        },
        {
            "close_approach_date": "2008-11-04",
            "close_approach_date_full": "2008-Nov-04 14:20",
            "epoch_date_close_approach": 1225808400000,
            "relative_velocity": {
                "kilometers_per_second": "3.0203588781",
                "kilometers_per_hour": "10873.2919609818",
                "miles_per_hour": "6756.2407743111"
            },
            "miss_distance": {
                "astronomical": "0.247489881",
                "lunar": "96.273563709",
                "kilometers": "37023959.04415347",
                "miles": "23005621.365199086"
            },
            "orbiting_body": "Earth"
        },
        {
            "close_approach_date": "2025-11-06",
            "close_approach_date_full": "2025-Nov-06 00:51",
            "epoch_date_close_approach": 1762390260000,
            "relative_velocity": {
                "kilometers_per_second": "3.0371368798",
                "kilometers_per_hour": "10933.6927674228",
                "miles_per_hour": "6793.7714865134"
            },
            "miss_distance": {
                "astronomical": "0.2552846039",
                "lunar": "99.3057109171",
                "kilometers": "38190032.987233693",
                "miles": "23730186.1149152434"
            },
            "orbiting_body": "Earth"
        },
        {
            "close_approach_date": "2192-10-22",
            "close_approach_date_full": "2192-Oct-22 12:15",
            "epoch_date_close_approach": 7031189700000,
            "relative_velocity": {
                "kilometers_per_second": "3.4851261734",
                "kilometers_per_hour": "12546.4542240874",
                "miles_per_hour": "7795.8787371836"
            },
            "miss_distance": {
                "astronomical": "0.2744908774",
                "lunar": "106.7769513086",
                "kilometers": "41063250.593471138",
                "miles": "25515520.7483641844"
            },
            "orbiting_body": "Earth"
        }
    ],
    "orbital_data": {
        "orbit_id": "22",
        "orbit_determination_date": "2017-04-06 09:02:56",
        "first_observation_date": "2008-09-21",
        "last_observation_date": "2008-12-31",
        "data_arc_in_days": 101,
        "observations_used": 69,
        "orbit_uncertainty": "5",
        "minimum_orbit_intersection": ".209571",
        "jupiter_tisserand_invariant": "3.731",
        "epoch_osculation": "2459000.5",
        "eccentricity": ".4032963156057942",
        "semi_major_axis": "2.002252461295731",
        "inclination": "4.479076776858605",
        "ascending_node_longitude": "256.4783201908024",
        "orbital_period": "1034.848277606574",
        "perihelion_distance": "1.194751420742529",
        "perihelion_argument": "138.6470591798952",
        "aphelion_distance": "2.809753501848932",
        "perihelion_time": "2458898.782120165367",
        "mean_anomaly": "35.38531930995728",
        "mean_motion": ".3478770828440841",
        "equinox": "J2000",
        "orbit_class": {
            "orbit_class_type": "AMO",
            "orbit_class_description": "Near-Earth asteroid orbits similar to that of 1221 Amor",
            "orbit_class_range": "1.017 AU < q (perihelion) < 1.3 AU"
        }
    },
    "is_sentry_object": false
}